[
  {
    "CCSDS_OMM_VERS": "2.0",
    "COMMENT": "GENERATED VIA SPACE-TRACK.ORG API",
    "CREATION_DATE": "2021-12-04T06:36:11",
    "ORIGINATOR": "18 SPCS",
    "OBJECT_NAME": "THOR ABLESTAR DEB",
    "OBJECT_ID": "1961-015BY",
    "CENTER_NAME": "EARTH",
    "REF_FRAME": "TEME",
    "TIME_SYSTEM": "UTC",
    "MEAN_ELEMENT_THEORY": "SGP4",
    "EPOCH": "2021-12-04T01:03:10.672128",
    "MEAN_MOTION": "13.97552344",
    "ECCENTRICITY": "0.00234520",
    "INCLINATION": "66.4634",
    "RA_OF_ASC_NODE": "202.7522",
    "ARG_OF_PERICENTER": "65.9364",
    "MEAN_ANOMALY": "294.4165",
    "EPHEMERIS_TYPE": "0",
    "CLASSIFICATION_TYPE": "U",
    "NORAD_CAT_ID": "243",
    "ELEMENT_SET_NO": "999",
    "REV_AT_EPOCH": "5213",
    "BSTAR": "0.00030183000000",
    "MEAN_MOTION_DOT": "0.00000346",
    "MEAN_MOTION_DDOT": "0.0000000000000",
    "SEMIMAJOR_AXIS": "7280.420",
    "PERIOD": "103.037",
    "APOAPSIS": "919.359",
    "PERIAPSIS": "885.211",
    "OBJECT_TYPE": "DEBRIS",
    "RCS_SIZE": "SMALL",
    "COUNTRY_CODE": "US",
    "LAUNCH_DATE": "1961-06-29",
    "SITE": "AFETR",
    "DECAY_DATE": null,
    "FILE": "3231995",
    "GP_ID": "191042206",
    "TLE_LINE0": "0 THOR ABLESTAR DEB",
    "TLE_LINE1": "1   243U 61015BY  21338.04387352  .00000346  00000-0  30183-3 0  9992",
    "TLE_LINE2": "2   243  66.4634 202.7522 0023452  65.9364 294.4165 13.97552344 52134"
  },
  {
    "CCSDS_OMM_VERS": "2.0",
    "COMMENT": "GENERATED VIA SPACE-TRACK.ORG API",
    "CREATION_DATE": "2021-12-03T17:32:05",
    "ORIGINATOR": "18 SPCS",
    "OBJECT_NAME": "THOR ABLESTAR DEB",
    "OBJECT_ID": "1961-015BZ",
    "CENTER_NAME": "EARTH",
    "REF_FRAME": "TEME",
    "TIME_SYSTEM": "UTC",
    "MEAN_ELEMENT_THEORY": "SGP4",
    "EPOCH": "2021-12-03T09:09:35.017056",
    "MEAN_MOTION": "13.94725428",
    "ECCENTRICITY": "0.00709140",
    "INCLINATION": "66.8416",
    "RA_OF_ASC_NODE": "337.6535",
    "ARG_OF_PERICENTER": "187.2645",
    "MEAN_ANOMALY": "172.7416",
    "EPHEMERIS_TYPE": "0",
    "CLASSIFICATION_TYPE": "U",
    "NORAD_CAT_ID": "244",
    "ELEMENT_SET_NO": "999",
    "REV_AT_EPOCH": "6801",
    "BSTAR": "0.00005802100000",
    "MEAN_MOTION_DOT": "0.00000002",
    "MEAN_MOTION_DDOT": "0.0000000000000",
    "SEMIMAJOR_AXIS": "7290.255",
    "PERIOD": "103.246",
    "APOAPSIS": "963.818",
    "PERIAPSIS": "860.421",
    "OBJECT_TYPE": "DEBRIS",
    "RCS_SIZE": "SMALL",
    "COUNTRY_CODE": "US",
    "LAUNCH_DATE": "1961-06-29",
    "SITE": "AFETR",
    "DECAY_DATE": null,
    "FILE": "3231740",
    "GP_ID": "190991094",
    "TLE_LINE0": "0 THOR ABLESTAR DEB",
    "TLE_LINE1": "1 00244U 61015BZ  21337.38165529  .00000002  00000-0  58021-4 0  9990",
    "TLE_LINE2": "2 00244  66.8416 337.6535 0070914 187.2645 172.7416 13.94725428 68017"
  },
  {
    "CCSDS_OMM_VERS": "2.0",
    "COMMENT": "GENERATED VIA SPACE-TRACK.ORG API",
    "CREATION_DATE": "2021-12-04T06:46:11",
    "ORIGINATOR": "18 SPCS",
    "OBJECT_NAME": "THOR ABLESTAR DEB",
    "OBJECT_ID": "1961-015CA",
    "CENTER_NAME": "EARTH",
    "REF_FRAME": "TEME",
    "TIME_SYSTEM": "UTC",
    "MEAN_ELEMENT_THEORY": "SGP4",
    "EPOCH": "2021-12-04T01:23:11.172480",
    "MEAN_MOTION": "14.14070220",
    "ECCENTRICITY": "0.00427080",
    "INCLINATION": "66.0833",
    "RA_OF_ASC_NODE": "187.1156",
    "ARG_OF_PERICENTER": "91.3342",
    "MEAN_ANOMALY": "269.2636",
    "EPHEMERIS_TYPE": "0",
    "CLASSIFICATION_TYPE": "U",
    "NORAD_CAT_ID": "245",
    "ELEMENT_SET_NO": "999",
    "REV_AT_EPOCH": "9381",
    "BSTAR": "0.00026945000000",
    "MEAN_MOTION_DOT": "0.00000431",
    "MEAN_MOTION_DDOT": "0.0000000000000",
    "SEMIMAJOR_AXIS": "7223.614",
    "PERIOD": "101.834",
    "APOAPSIS": "876.329",
    "PERIAPSIS": "814.628",
    "OBJECT_TYPE": "DEBRIS",
    "RCS_SIZE": "MEDIUM",
    "COUNTRY_CODE": "US",
    "LAUNCH_DATE": "1961-06-29",
    "SITE": "AFETR",
    "DECAY_DATE": null,
    "FILE": "3232042",
    "GP_ID": "191043256",
    "TLE_LINE0": "0 THOR ABLESTAR DEB",
    "TLE_LINE1": "1   245U 61015CA  21338.05776820  .00000431  00000-0  26945-3 0  9993",
    "TLE_LINE2": "2   245  66.0833 187.1156 0042708  91.3342 269.2636 14.14070220 93817"
  },
  {
    "CCSDS_OMM_VERS": "2.0",
    "COMMENT": "GENERATED VIA SPACE-TRACK.ORG API",
    "CREATION_DATE": "2021-12-03T17:32:05",
    "ORIGINATOR": "18 SPCS",
    "OBJECT_NAME": "THOR ABLESTAR DEB",
    "OBJECT_ID": "1961-015CB",
    "CENTER_NAME": "EARTH",
    "REF_FRAME": "TEME",
    "TIME_SYSTEM": "UTC",
    "MEAN_ELEMENT_THEORY": "SGP4",
    "EPOCH": "2021-12-03T02:48:26.409312",
    "MEAN_MOTION": "13.85804800",
    "ECCENTRICITY": "0.00704370",
    "INCLINATION": "66.8691",
    "RA_OF_ASC_NODE": "233.6929",
    "ARG_OF_PERICENTER": "226.0672",
    "MEAN_ANOMALY": "133.4579",
    "EPHEMERIS_TYPE": "0",
    "CLASSIFICATION_TYPE": "U",
    "NORAD_CAT_ID": "246",
    "ELEMENT_SET_NO": "999",
    "REV_AT_EPOCH": "39423",
    "BSTAR": "0.00003969200000",
    "MEAN_MOTION_DOT": "-0.00000029",
    "MEAN_MOTION_DDOT": "0.0000000000000",
    "SEMIMAJOR_AXIS": "7321.507",
    "PERIOD": "103.911",
    "APOAPSIS": "994.942",
    "PERIAPSIS": "891.801",
    "OBJECT_TYPE": "DEBRIS",
    "RCS_SIZE": "MEDIUM",
    "COUNTRY_CODE": "US",
    "LAUNCH_DATE": "1961-06-29",
    "SITE": "AFETR",
    "DECAY_DATE": null,
    "FILE": "3231740",
    "GP_ID": "190990093",
    "TLE_LINE0": "0 THOR ABLESTAR DEB",
    "TLE_LINE1": "1 00246U 61015CB  21337.11697233 -.00000029  00000-0  39692-4 0  9998",
    "TLE_LINE2": "2 00246  66.8691 233.6929 0070437 226.0672 133.4579 13.85804800394230"
  },
  {
    "CCSDS_OMM_VERS": "2.0",
    "COMMENT": "GENERATED VIA SPACE-TRACK.ORG API",
    "CREATION_DATE": "2021-12-03T17:32:05",
    "ORIGINATOR": "18 SPCS",
    "OBJECT_NAME": "THOR ABLESTAR DEB",
    "OBJECT_ID": "1961-015CD",
    "CENTER_NAME": "EARTH",
    "REF_FRAME": "TEME",
    "TIME_SYSTEM": "UTC",
    "MEAN_ELEMENT_THEORY": "SGP4",
    "EPOCH": "2021-12-03T12:01:55.439904",
    "MEAN_MOTION": "13.76335636",
    "ECCENTRICITY": "0.00560980",
    "INCLINATION": "67.0769",
    "RA_OF_ASC_NODE": "133.6655",
    "ARG_OF_PERICENTER": "333.4458",
    "MEAN_ANOMALY": "84.5655",
    "EPHEMERIS_TYPE": "0",
    "CLASSIFICATION_TYPE": "U",
    "NORAD_CAT_ID": "252",
    "ELEMENT_SET_NO": "999",
    "REV_AT_EPOCH": "2323",
    "BSTAR": "0.00015727000000",
    "MEAN_MOTION_DOT": "0.00000083",
    "MEAN_MOTION_DDOT": "0.0000000000000",
    "SEMIMAJOR_AXIS": "7355.050",
    "PERIOD": "104.626",
    "APOAPSIS": "1018.175",
    "PERIAPSIS": "935.654",
    "OBJECT_TYPE": "DEBRIS",
    "RCS_SIZE": "SMALL",
    "COUNTRY_CODE": "US",
    "LAUNCH_DATE": "1961-06-29",
    "SITE": "AFETR",
    "DECAY_DATE": null,
    "FILE": "3231740",
    "GP_ID": "190990343",
    "TLE_LINE0": "0 THOR ABLESTAR DEB",
    "TLE_LINE1": "1 00252U 61015CD  21337.50133611  .00000083  00000-0  15727-3 0  9994",
    "TLE_LINE2": "2 00252  67.0769 133.6655 0056098 333.4458  84.5655 13.76335636 23239"
  },
  {
    "CCSDS_OMM_VERS": "2.0",
    "COMMENT": "GENERATED VIA SPACE-TRACK.ORG API",
    "CREATION_DATE": "2021-12-03T17:32:05",
    "ORIGINATOR": "18 SPCS",
    "OBJECT_NAME": "THOR ABLESTAR DEB",
    "OBJECT_ID": "1961-015CE",
    "CENTER_NAME": "EARTH",
    "REF_FRAME": "TEME",
    "TIME_SYSTEM": "UTC",
    "MEAN_ELEMENT_THEORY": "SGP4",
    "EPOCH": "2021-12-03T15:19:19.567488",
    "MEAN_MOTION": "14.61010380",
    "ECCENTRICITY": "0.00253550",
    "INCLINATION": "66.9239",
    "RA_OF_ASC_NODE": "336.2783",
    "ARG_OF_PERICENTER": "358.2394",
    "MEAN_ANOMALY": "1.8629",
    "EPHEMERIS_TYPE": "0",
    "CLASSIFICATION_TYPE": "U",
    "NORAD_CAT_ID": "253",
    "ELEMENT_SET_NO": "999",
    "REV_AT_EPOCH": "13446",
    "BSTAR": "0.00029822000000",
    "MEAN_MOTION_DOT": "0.00001373",
    "MEAN_MOTION_DDOT": "0.0000000000000",
    "SEMIMAJOR_AXIS": "7068.050",
    "PERIOD": "98.562",
    "APOAPSIS": "707.836",
    "PERIAPSIS": "671.994",
    "OBJECT_TYPE": "DEBRIS",
    "RCS_SIZE": "SMALL",
    "COUNTRY_CODE": "US",
    "LAUNCH_DATE": "1961-06-29",
    "SITE": "AFETR",
    "DECAY_DATE": null,
    "FILE": "3231740",
    "GP_ID": "190990595",
    "TLE_LINE0": "0 THOR ABLESTAR DEB",
    "TLE_LINE1": "1 00253U 61015CE  21337.63842092  .00001373  00000-0  29822-3 0  9993",
    "TLE_LINE2": "2 00253  66.9239 336.2783 0025355 358.2394   1.8629 14.61010380134461"
  },
  {
    "CCSDS_OMM_VERS": "2.0",
    "COMMENT": "GENERATED VIA SPACE-TRACK.ORG API",
    "CREATION_DATE": "2021-12-03T17:32:05",
    "ORIGINATOR": "18 SPCS",
    "OBJECT_NAME": "THOR ABLESTAR DEB",
    "OBJECT_ID": "1961-015CF",
    "CENTER_NAME": "EARTH",
    "REF_FRAME": "TEME",
    "TIME_SYSTEM": "UTC",
    "MEAN_ELEMENT_THEORY": "SGP4",
    "EPOCH": "2021-12-03T13:52:20.220384",
    "MEAN_MOTION": "14.42636769",
    "ECCENTRICITY": "0.00776290",
    "INCLINATION": "66.7777",
    "RA_OF_ASC_NODE": "39.8734",
    "ARG_OF_PERICENTER": "257.7635",
    "MEAN_ANOMALY": "101.4769",
    "EPHEMERIS_TYPE": "0",
    "CLASSIFICATION_TYPE": "U",
    "NORAD_CAT_ID": "254",
    "ELEMENT_SET_NO": "999",
    "REV_AT_EPOCH": "13400",
    "BSTAR": "0.00017157000000",
    "MEAN_MOTION_DOT": "0.00000500",
    "MEAN_MOTION_DDOT": "0.0000000000000",
    "SEMIMAJOR_AXIS": "7127.937",
    "PERIOD": "99.817",
    "APOAPSIS": "805.135",
    "PERIAPSIS": "694.468",
    "OBJECT_TYPE": "DEBRIS",
    "RCS_SIZE": "SMALL",
    "COUNTRY_CODE": "US",
    "LAUNCH_DATE": "1961-06-29",
    "SITE": "AFETR",
    "DECAY_DATE": null,
    "FILE": "3231740",
    "GP_ID": "190991345",
    "TLE_LINE0": "0 THOR ABLESTAR DEB",
    "TLE_LINE1": "1 00254U 61015CF  21337.57801181  .00000500  00000-0  17157-3 0  9990",
    "TLE_LINE2": "2 00254  66.7777  39.8734 0077629 257.7635 101.4769 14.42636769134007"
  }
]
